FLOCK 4BE-27            
1 60513U 24149AX  26068.75339182  .00011439  00000+0  36576-3 0  9992
2 60513  97.3862 150.6783 0002732 305.8980  54.2008 15.32593322 86906
STARLINK-34934          
1 65897U 25224R   26068.27912694  .00023731  00000+0  81098-3 0  9996
2 65897  53.1605  13.0952 0001412  84.2251 275.8911 15.30192145 24760
